K16T92S 20.0   0.15 K177R 126.67012    9.61869  278.04525   14.84500  0.5983204  0.33613369   2.0486198  5 MPO397883    23   1   39 days 0.25 M-v 3Eh MPCALB     2803          2016 TS92          20161120
K16T92T 26.4   0.15 K177R  83.16431    4.95772  354.70431    1.13523  0.5731175  0.27335802   2.3513367  5 MPO409569    44   1   36 days 0.28 M-v 3Eh MPCLINUX   2804          2016 TT92          20161111
K16T92Y 19.8   0.15 K177R  36.74828   24.36163   80.45183   12.17367  0.6373124  0.20539817   2.8449306  3 MPO405363    76   1  201 days 0.36 M-v 3Eh MPCLINUX   0804          2016 TY92          20170428
K16T93B 22.3   0.15 K177R 130.63469  236.27204  188.22678   16.54817  0.2337734  0.57378035   1.4342965  5 MPO397883    45   1   53 days 0.36 M-v 3Eh MPCALB     2804          2016 TB93          20161128
K16T93C 22.8   0.15 K177R  96.21399  197.74361  205.91987    8.31632  0.3793223  0.36724270   1.9312297  4 MPO397883    79   1   71 days 0.30 M-v 38h MPCALB     2804          2016 TC93          20161222
K16T93E 21.2   0.15 K177R  89.81731  353.20276  214.25875   22.73232  0.1757651  0.93566424   1.0352757  3 E2017-O44    66   2 2016-2017 0.33 M-v 3Eh MPCLINUX   0803          2016 TE93          20170724
K16T93F 17.9   0.15 K177R  22.93852  354.29746  124.07358   12.39431  0.5069690  0.25491408   2.4634297  1 MPO389540    43   3 2002-2016 0.22 M-v 38h MPCADO     1804          2016 TF93          20161025
K16T93H 22.6   0.15 K177R  98.89622  210.45409  198.70313   14.17771  0.3942335  0.40214085   1.8178188  4 MPO397883    35   1   86 days 0.26 M-v 38h MPCADO     2804          2016 TH93          20161231
K16T93J 21.7   0.15 K177R  69.95340  355.94037   37.96384   23.76100  0.4927892  0.25153256   2.4854589  5 MPO397883    36   1   38 days 0.40 M-v 38h MPCALB     2804          2016 TJ93          20161120
K16T93Q 20.7   0.15 K177R 112.65015  170.36820  140.58690   10.74611  0.4948872  0.28745374   2.2738269  5 MPO397883    32   1   27 days 0.29 M-v 38h MPCALB     2804          2016 TQ93          20161105
K16T93T 22.4   0.15 K177R  97.01170   56.65709   42.95304   22.32854  0.4623995  0.44199978   1.7068211  5 MPO397883    44   1   35 days 0.31 M-v 3Eh MPCALB     2803          2016 TT93          20161111
K16T93U 26.3   0.15 K177R 146.79365  158.83159  164.80247    2.09556  0.4628604  0.44090553   1.7096440  6 MPO389541     9   1   13 days 0.06 M-v 3Eh MPCW       2803          2016 TU93          20161022
K16T93V 24.5   0.15 K177R  56.95392  208.92383  187.27146    2.01576  0.6083388  0.20741512   2.8264574  6 MPO397883    31   1   29 days 0.30 M-v 38h MPCW       2804          2016 TV93          20161110
K16T93Z 23.8   0.15 K177R 327.78550  226.60817   30.80895    7.44702  0.3276375  0.84817788   1.1052947  6 MPO389541    17   1   34 days 0.32 M-v 3Eh MPCW       2803          2016 TZ93          20161026
K16U00A 20.8   0.15 K177R 238.08808  282.82848  291.82520    9.86227  0.5172243  1.50476190   0.7542075  6 MPO397883    94   1   63 days 0.28 M-v 3Eh MPCALB     2802          2016 UA            20161218
K16U00D 26.6   0.15 K177R 171.85361  257.68948   24.92457   10.24827  0.6650942  0.51800551   1.5354881  6 MPO389542    24   1    1 days 0.25 M-v 3Eh MPCW       2803          2016 UD            20161020
K16U00E 25.1   0.15 K177R 180.80762  296.46429  181.07806    1.08817  0.1519858  0.90757596   1.0565273  4 MPO411583    69   1  240 days 0.22 M-v 3Eh MPCLINUX   0803          2016 UE            20170528
K16U00H 25.3   0.15 K177R  63.46051  194.78939  216.19444    5.12402  0.5967783  0.24412219   2.5355054  6 MPO389542    36   1   12 days 0.38 M-v 3Eh MPCALB     2804          2016 UH            20161031
K16U00J 23.3   0.15 K177R 138.15233  336.50607   27.26205   13.49688  0.3770954  0.45936331   1.6635346  4 MPO389542    71   1   22 days 0.44 M-v 3Eh MPCALB     2804          2016 UJ            20161110
K16U04S 24.4   0.15 K177R 262.72657  327.93519  206.13213   14.96275  0.3624030  1.36582938   0.8045229  7 MPO389542    57   1    3 days 0.41 M-v 3Eh MPCADO     2802          2016 US4           20161022
K16U04T 22.2   0.15 K177R 104.63778  349.35944  359.88968    2.90227  0.5051551  0.33650726   2.0471033  5 MPO397883   101   1   31 days 0.34 M-v 3Eh MPCADO     2804          2016 UT4           20161119
K16U04U 21.3   0.15 K177R  64.58224   28.96742   29.65851   15.70909  0.4868212  0.26397681   2.4067198  3 MPO397883    78   1   81 days 0.28 M-v 38h MPCALB     2804          2016 UU4           20170108
K16U04V 16.8   0.15 K177R  22.13539  166.74519  240.05505   13.03218  0.5147259  0.09459611   4.7703899  3 MPO403117    59   1   90 days 0.33 M-v 38h MPCW       2000          2016 UV4           20161205
K16U05L 18.8   0.15 K177R  32.00084  116.17702  349.74227   25.13172  0.6531074  0.23355666   2.6114069  3 MPO411583    47   2 2016-2017 0.24 M-v 3Eh MPCLINUX   0803          2016 UL5           20170415
K16U05M 22.0   0.15 K177R  74.97996  331.20419   37.45604   13.51766  0.4858648  0.24998449   2.4957094  5 MPO397883    64   1   36 days 0.41 M-v 38h MPCADO     2804          2016 UM5           20161124
K16U05N 25.1   0.15 K177R 123.35962   40.81687   26.59250    4.25097  0.3438010  0.51126136   1.5489619  5 MPO403117    71   1   79 days 0.40 M-v 3Eh MPCADO     2804          2016 UN5           20170107
K16U05O 25.8   0.15 K177R 140.67743    1.52789  208.58604    6.66954  0.1997858  1.15761129   0.8983127  8 MPO389544    32   1   16 days 0.55 M-v 3Eh MPCALB     2802          2016 UO5           20161105
K16U05P 24.4   0.15 K177R  60.40531  350.81048   19.76154    4.11290  0.6446346  0.20580675   2.8411640  6 MPO389544    74   1   16 days 0.36 M-v 3Eh MPCALB     2804          2016 UP5           20161105
K16U05Q 25.0   0.15 K177R  92.72305   38.00987   24.03402    7.24523  0.4861387  0.37270012   1.9123308  6 MPO389544    68   1   14 days 0.40 M-v 3Eh MPCALB     2803          2016 UQ5           20161104
K16U05R 26.7   0.15 K177R 227.38012  126.46090   29.05204   11.70022  0.4730838  1.08039147   0.9406223  7 MPO389544    38   1    1 days 0.42 M-v 3Eh MPCW       2802          2016 UR5           20161022
K16U05W 22.0   0.15 K177R  56.49294   42.62983   23.51502    7.81386  0.5068856  0.23998098   2.5645913  4 MPO397883    61   1   68 days 0.45 M-v 38h MPCADO     2804          2016 UW5           20161228
K16U05X 26.5   0.15 K177R 157.66048  246.50332  205.97955    2.65333  0.2605207  0.70756533   1.2472639  6 MPO389545    38   1   12 days 0.41 M-v 3Eh MPCALB     2803          2016 UX5           20161102
K16U05Y 27.1   0.15 K177R 131.49733  356.55402   37.00809    1.99109  0.3656892  0.48010547   1.6152693  7 MPO389545    26   1   10 days 0.41 M-v 3Eh MPCALB     2804          2016 UY5           20161031
K16U05Z 25.6   0.15 K177R  79.25106  345.55912   31.39063   12.12019  0.5602449  0.27486038   2.3427608  6 MPO389545    41   1    9 days 0.33 M-v 3Eh MPCALB     2804          2016 UZ5           20161030
K16U06A 25.8   0.15 K177R 183.73847  311.71979  206.95548   12.16052  0.1841703  1.06130952   0.9518635  7 MPO389545    43   1    8 days 0.37 M-v 3Eh MPCALB     2802          2016 UA6           20161029
K16U25X 20.5   0.15 K177R 133.26025  324.32877  341.24335    4.77876  0.4086569  0.33511481   2.0527700  6 MPO397884    26   1   30 days 0.56 M-v 38h MPCADO     2804          2016 UX25          20161119
K16U25Y 21.4   0.15 K177R  83.56034   57.80563   21.69833   18.14463  0.3086993  0.41413565   1.7825469  3 MPO394482    54   2 1997-2016 0.40 M-v 38h MPCALB     0804          2016 UY25          20161206
K16U25Z 21.6   0.15 K177R  51.90894  114.33757   32.51552    3.81494  0.7947422  0.25065900   2.4912301  5 MPO397884   179   1   40 days 0.33 M-v 3Eh MPCADO     A803          2016 UZ25          20161116
K16U26A 23.7   0.15 K177R 139.09229  100.60372  224.00551   11.82202  0.4859010  0.42255959   1.7587768  8 MPO389546    31   1    7 days 0.36 M-v 3Eh MPCALB     2803          2016 UA26          20161029
K16U26B 25.0   0.15 K177R  56.30995   87.73992   13.32572    4.67498  0.7044133  0.24376769   2.5379630  7 MPO389546    33   1    5 days 0.34 M-v 3Eh MPCALB     2803          2016 UB26          20161027
K16U26C 22.6   0.15 K177R  78.66905  258.41800  185.99339    5.32379  0.5652685  0.33158988   2.0672922  8 MPO389547    37   1    7 days 0.49 M-v 3Eh MPCADO     2803          2016 UC26          20161029
K16U26D 24.3   0.15 K177R  76.77728  344.13604    9.87109    4.29170  0.6174554  0.25067359   2.4911334  6 MPO389547    29   1   19 days 0.37 M-v 3Eh MPCALB     2803          2016 UD26          20161110
K16U31C 24.6   0.15 K177R 153.44625  319.18947  217.35864   14.00269  0.1256185  1.05619534   0.9549337  6 MPO397884    53   1   26 days 0.40 M-v 3Eh MPCADO     2802          2016 UC31          20161118
K16U31J 19.5   0.15 K177R 167.18124    5.11008  348.62604   30.28683  0.3289263  0.54761138   1.4796344  4 MPO403117    42   1  126 days 0.30 M-h 3Eh MPCLINUX   8803          2016 UJ31          20170211
K16U31R 24.7   0.15 K177R 255.85036   78.02801  230.10842    1.78910  0.3020727  0.73771535   1.2130448  8 MPO389547    16   1   11 days 0.29 M-v 3Eh MPCALB     2803          2016 UR31          20161103
K16U31S 25.2   0.15 K177R 162.76223  182.11744  167.13500    1.63952  0.3652709  0.52478605   1.5222332  7 MPO389547    25   1   11 days 0.26 M-v 3Eh MPCALB     2803          2016 US31          20161105
K16U35W 24.5   0.15 K177R 175.97620  221.84476  217.46595    9.46510  0.1205644  0.78683063   1.1620243  5 MPO397884    46   1   58 days 0.45 M-v 3Eh MPCADO     2804          2016 UW35          20161208
K16U35X 23.3   0.15 K177R 174.71239  351.18201   32.85920   20.01539  0.1802124  0.61821993   1.3647111  6 MPO397884    57   1   25 days 0.41 M-v 38h MPCALB     2804          2016 UX35          20161118
K16U35Y 24.7   0.15 K177R  82.16980   25.83115  215.17720   17.50182  0.1794852  1.09847491   0.9302706  6 MPO397884    64   1   14 days 0.29 M-v 3Eh MPCALB     2802          2016 UY35          20161106
